{
  "norad_id": 59844,
  "name": "STARLINK-31851",
  "history": [
    {
      "epoch": "2026-03-28T13:16:03.561600Z",
      "apogee_km": 483.77790938893577,
      "perigee_km": 482.3219655208077,
      "latitude_deg": -1.2169841135494038e-05,
      "longitude_deg": 142.6762279610225,
      "height_km": 483.1880203347926,
      "semi_major_axis_km": 6861.186937454871,
      "eccentricity": 0.0001061,
      "inclination_deg": 43.0015,
      "raan_deg": 167.6627,
      "arg_perigee_deg": 240.2097,
      "mean_anomaly_deg": 119.8649,
      "mean_motion_rev_day": 15.27579719
    }
  ]
}